{
  "type": "FeatureCollection",
  "features": [
    {
      "type": "Feature",
      "properties": {
        "norad_id": 34497,
        "name": "IRIDIUM 33 DEB",
        "group": "iridium-33-debris",
        "lat": -20.741361103122692,
        "lon": 44.65468273435689,
        "alt_km": 767.7594168598507,
        "timestamp": "2025-12-27T13:34:49.680700+00:00",
        "meta_object_name": "IRIDIUM 33 DEB",
        "meta_object_id": "1997-051GN",
        "meta_epoch": "2025-12-22T21:33:03.136608",
        "meta_mean_motion": 14.27482363,
        "meta_eccentricity": 0.00780484,
        "meta_inclination": 86.2769,
        "meta_ra_of_asc_node": 48.0617,
        "meta_arg_of_pericenter": 306.2683,
        "meta_mean_anomaly": 179.2919,
        "meta_ephemeris_type": 0,
        "meta_classification_type": "U",
        "meta_norad_cat_id": 34497,
        "meta_element_set_no": 999,
        "meta_rev_at_epoch": 87028,
        "meta_bstar": 0.00056228088,
        "meta_mean_motion_dot": 1.443e-05,
        "meta_mean_motion_ddot": 0,
        "tle_line1": "1 34497U 97051GN  25356.89795297  .00001443  00000+0  56228-3 0  9993",
        "tle_line2": "2 34497  86.2769  48.0617 0078048 306.2683 179.2919 14.27482363870281"
      },
      "geometry": {
        "type": "Point",
        "coordinates": [
          44.65468273435689,
          -20.741361103122692
        ]
      }
    },
    {
      "type": "Feature",
      "properties": {
        "norad_id": 34508,
        "name": "IRIDIUM 33 DEB",
        "group": "iridium-33-debris",
        "lat": 2.55823879031465,
        "lon": 96.5198105416153,
        "alt_km": 791.6070807396918,
        "timestamp": "2025-12-27T13:34:49.680710+00:00",
        "meta_object_name": "IRIDIUM 33 DEB",
        "meta_object_id": "1997-051GZ",
        "meta_epoch": "2025-12-27T06:53:26.818944",
        "meta_mean_motion": 14.38536882,
        "meta_eccentricity": 0.00667256,
        "meta_inclination": 86.3698,
        "meta_ra_of_asc_node": 96.4755,
        "meta_arg_of_pericenter": 126.3522,
        "meta_mean_anomaly": 234.386,
        "meta_ephemeris_type": 0,
        "meta_classification_type": "U",
        "meta_norad_cat_id": 34508,
        "meta_element_set_no": 999,
        "meta_rev_at_epoch": 87518,
        "meta_bstar": 0.0013018755,
        "meta_mean_motion_dot": 4.103e-05,
        "meta_mean_motion_ddot": 0,
        "tle_line1": "1 34508U 97051GZ  25361.28711596  .00004103  00000+0  13019-2 0  9991",
        "tle_line2": "2 34508  86.3698  96.4755 0066725 126.3522 234.3860 14.38536882875188"
      },
      "geometry": {
        "type": "Point",
        "coordinates": [
          96.5198105416153,
          2.55823879031465
        ]
      }
    },
    {
      "type": "Feature",
      "properties": {
        "norad_id": 34521,
        "name": "IRIDIUM 33 DEB",
        "group": "iridium-33-debris",
        "lat": 70.10962455460397,
        "lon": 34.0987817100841,
        "alt_km": 675.1733885914064,
        "timestamp": "2025-12-27T13:34:49.680719+00:00",
        "meta_object_name": "IRIDIUM 33 DEB",
        "meta_object_id": "1997-051HN",
        "meta_epoch": "2025-12-27T01:46:22.234080",
        "meta_mean_motion": 14.63488583,
        "meta_eccentricity": 0.00033783,
        "meta_inclination": 86.3791,
        "meta_ra_of_asc_node": 24.2356,
        "meta_arg_of_pericenter": 161.084,
        "meta_mean_anomaly": 199.0499,
        "meta_ephemeris_type": 0,
        "meta_classification_type": "U",
        "meta_norad_cat_id": 34521,
        "meta_element_set_no": 999,
        "meta_rev_at_epoch": 88682,
        "meta_bstar": 0.0010643818,
        "meta_mean_motion_dot": 5.535e-05,
        "meta_mean_motion_ddot": 0,
        "tle_line1": "1 34521U 97051HN  25361.07386845  .00005535  00000+0  10644-2 0  9999",
        "tle_line2": "2 34521  86.3791  24.2356 0003378 161.0840 199.0499 14.63488583886827"
      },
      "geometry": {
        "type": "Point",
        "coordinates": [
          34.0987817100841,
          70.10962455460397
        ]
      }
    },
    {
      "type": "Feature",
      "properties": {
        "norad_id": 34525,
        "name": "IRIDIUM 33 DEB",
        "group": "iridium-33-debris",
        "lat": -56.67671774805197,
        "lon": -133.94704069033148,
        "alt_km": 760.3147997365841,
        "timestamp": "2025-12-27T13:34:49.680730+00:00",
        "meta_object_name": "IRIDIUM 33 DEB",
        "meta_object_id": "1997-051HS",
        "meta_epoch": "2025-12-27T02:46:13.062144",
        "meta_mean_motion": 14.42939848,
        "meta_eccentricity": 0.00061196,
        "meta_inclination": 86.3716,
        "meta_ra_of_asc_node": 40.7068,
        "meta_arg_of_pericenter": 61.7573,
        "meta_mean_anomaly": 356.7447,
        "meta_ephemeris_type": 0,
        "meta_classification_type": "U",
        "meta_norad_cat_id": 34525,
        "meta_element_set_no": 999,
        "meta_rev_at_epoch": 88295,
        "meta_bstar": 0.00039403064,
        "meta_mean_motion_dot": 1.337e-05,
        "meta_mean_motion_ddot": 0,
        "tle_line1": "1 34525U 97051HS  25361.11542896  .00001337  00000+0  39403-3 0  9999",
        "tle_line2": "2 34525  86.3716  40.7068 0006119  61.7573 356.7447 14.42939848882953"
      },
      "geometry": {
        "type": "Point",
        "coordinates": [
          -133.94704069033148,
          -56.67671774805197
        ]
      }
    },
    {
      "type": "Feature",
      "properties": {
        "norad_id": 34529,
        "name": "IRIDIUM 33 DEB",
        "group": "iridium-33-debris",
        "lat": 8.740946335726266,
        "lon": 29.650672457420523,
        "alt_km": 760.9585230293305,
        "timestamp": "2025-12-27T13:34:49.680740+00:00",
        "meta_object_name": "IRIDIUM 33 DEB",
        "meta_object_id": "1997-051HW",
        "meta_epoch": "2025-12-27T01:52:15.197952",
        "meta_mean_motion": 14.40627936,
        "meta_eccentricity": 0.00063335,
        "meta_inclination": 86.3627,
        "meta_ra_of_asc_node": 29.2983,
        "meta_arg_of_pericenter": 136.9465,
        "meta_mean_anomaly": 223.2231,
        "meta_ephemeris_type": 0,
        "meta_classification_type": "U",
        "meta_norad_cat_id": 34529,
        "meta_element_set_no": 999,
        "meta_rev_at_epoch": 88348,
        "meta_bstar": 0.00015042495,
        "meta_mean_motion_dot": 5e-06,
        "meta_mean_motion_ddot": 0,
        "tle_line1": "1 34529U 97051HW  25361.07795368  .00000500  00000+0  15042-3 0  9996",
        "tle_line2": "2 34529  86.3627  29.2983 0006333 136.9465 223.2231 14.40627936883487"
      },
      "geometry": {
        "type": "Point",
        "coordinates": [
          29.650672457420523,
          8.740946335726266
        ]
      }
    },
    {
      "type": "Feature",
      "properties": {
        "norad_id": 34538,
        "name": "IRIDIUM 33 DEB",
        "group": "iridium-33-debris",
        "lat": -43.418582737805345,
        "lon": -4.471954660650818,
        "alt_km": 738.8127052015998,
        "timestamp": "2025-12-27T13:34:49.680750+00:00",
        "meta_object_name": "IRIDIUM 33 DEB",
        "meta_object_id": "1997-051JF",
        "meta_epoch": "2025-12-26T18:05:01.336416",
        "meta_mean_motion": 14.42730445,
        "meta_eccentricity": 0.0031825,
        "meta_inclination": 86.2767,
        "meta_ra_of_asc_node": 359.4165,
        "meta_arg_of_pericenter": 279.2395,
        "meta_mean_anomaly": 140.4767,
        "meta_ephemeris_type": 0,
        "meta_classification_type": "U",
        "meta_norad_cat_id": 34538,
        "meta_element_set_no": 999,
        "meta_rev_at_epoch": 87958,
        "meta_bstar": 0.00099526831,
        "meta_mean_motion_dot": 3.352e-05,
        "meta_mean_motion_ddot": 0,
        "tle_line1": "1 34538U 97051JF  25360.75348769  .00003352  00000+0  99527-3 0  9997",
        "tle_line2": "2 34538  86.2767 359.4165 0031825 279.2395 140.4767 14.42730445879580"
      },
      "geometry": {
        "type": "Point",
        "coordinates": [
          -4.471954660650818,
          -43.418582737805345
        ]
      }
    },
    {
      "type": "Feature",
      "properties": {
        "norad_id": 34540,
        "name": "IRIDIUM 33 DEB",
        "group": "iridium-33-debris",
        "lat": -38.740799841925835,
        "lon": -62.13928778816236,
        "alt_km": 660.8853778532575,
        "timestamp": "2025-12-27T13:34:49.680760+00:00",
        "meta_object_name": "IRIDIUM 33 DEB",
        "meta_object_id": "1997-051JH",
        "meta_epoch": "2025-12-27T02:26:44.045952",
        "meta_mean_motion": 14.75620073,
        "meta_eccentricity": 0.00185605,
        "meta_inclination": 86.3108,
        "meta_ra_of_asc_node": 301.0402,
        "meta_arg_of_pericenter": 111.9699,
        "meta_mean_anomaly": 266.3781,
        "meta_ephemeris_type": 0,
        "meta_classification_type": "U",
        "meta_norad_cat_id": 34540,
        "meta_element_set_no": 999,
        "meta_rev_at_epoch": 89233,
        "meta_bstar": 0.0019662624,
        "meta_mean_motion_dot": 0.00013489,
        "meta_mean_motion_ddot": 0,
        "tle_line1": "1 34540U 97051JH  25361.10189868  .00013489  00000+0  19663-2 0  9997",
        "tle_line2": "2 34540  86.3108 301.0402 0018560 111.9699 266.3781 14.75620073892333"
      },
      "geometry": {
        "type": "Point",
        "coordinates": [
          -62.13928778816236,
          -38.740799841925835
        ]
      }
    }
  ]
}